{
    "links": {
        "self": "http://www.neowsapp.com/rest/v1/neo/3879136?api_key=iIulBulltgU6a56xZRHN4H3l9WmuAYTsLGpBGhQ2"
    },
    "id": "3879136",
    "neo_reference_id": "3879136",
    "name": "(2019 TJ6)",
    "designation": "2019 TJ6",
    "nasa_jpl_url": "http://ssd.jpl.nasa.gov/sbdb.cgi?sstr=3879136",
    "absolute_magnitude_h": 24.2,
    "estimated_diameter": {
        "kilometers": {
            "estimated_diameter_min": 0.0384197891,
            "estimated_diameter_max": 0.0859092601
        },
        "meters": {
            "estimated_diameter_min": 38.4197891064,
            "estimated_diameter_max": 85.9092601232
        },
        "miles": {
            "estimated_diameter_min": 0.0238729428,
            "estimated_diameter_max": 0.0533815229
        },
        "feet": {
            "estimated_diameter_min": 126.0491808919,
            "estimated_diameter_max": 281.8545369825
        }
    },
    "is_potentially_hazardous_asteroid": false,
    "close_approach_data": [
        {
            "close_approach_date": "2019-09-25",
            "close_approach_date_full": "2019-Sep-25 23:37",
            "epoch_date_close_approach": 1569454620000,
            "relative_velocity": {
                "kilometers_per_second": "7.294282918",
                "kilometers_per_hour": "26259.4185046618",
                "miles_per_hour": "16316.5814591883"
            },
            "miss_distance": {
                "astronomical": "0.1069235444",
                "lunar": "41.5932587716",
                "kilometers": "15995534.495090428",
                "miles": "9939164.2500787864"
            },
            "orbiting_body": "Earth"
        }
    ],
    "orbital_data": {
        "orbit_id": "5",
        "orbit_determination_date": "2019-12-11 04:51:43",
        "first_observation_date": "2019-09-30",
        "last_observation_date": "2019-10-24",
        "data_arc_in_days": 24,
        "observations_used": 36,
        "orbit_uncertainty": "6",
        "minimum_orbit_intersection": ".103667",
        "jupiter_tisserand_invariant": "3.749",
        "epoch_osculation": "2459000.5",
        "eccentricity": ".446640192598263",
        "semi_major_axis": "1.948503465530222",
        "inclination": "10.08097825861355",
        "ascending_node_longitude": "201.8187859699771",
        "orbital_period": "993.4595768830632",
        "perihelion_distance": "1.078223502407421",
        "perihelion_argument": "147.6832411618352",
        "aphelion_distance": "2.818783428653024",
        "perihelion_time": "2458739.020987040130",
        "mean_anomaly": "94.75216390876197",
        "mean_motion": ".3623700534746311",
        "equinox": "J2000",
        "orbit_class": {
            "orbit_class_type": "AMO",
            "orbit_class_description": "Near-Earth asteroid orbits similar to that of 1221 Amor",
            "orbit_class_range": "1.017 AU < q (perihelion) < 1.3 AU"
        }
    },
    "is_sentry_object": false
}